start=new Date('2023-03-15T00:00:00.000Z').valueOf();
sats=[{"SEMIMAJOR_AXIS":"6925.515","LAUNCH_DATE":"2021-03-14","MEAN_MOTION_DOT":"0.00036617","CENTER_NAME":"EARTH","RA_OF_ASC_NODE":"138.3811","SITE":"AFETR","TLE_LINE2":"2 47908  53.0526 138.3811 0001434  87.0794 273.0359 15.06345535111631","RCS_SIZE":"LARGE","ARG_OF_PERICENTER":"87.0794","GP_ID":"228107899","COUNTRY_CODE":"US","ELEMENT_SET_NO":"999","MEAN_ELEMENT_THEORY":"SGP4","OBJECT_NAME":"STARLINK-2368","MEAN_MOTION":"15.06345535","BSTAR":"0.00246800000000","TIME_SYSTEM":"UTC","OBJECT_ID":"2021-021BA","EPHEMERIS_TYPE":"0","REV_AT_EPOCH":"11163","APOAPSIS":"548.374","EPOCH":"2023-03-14T21:30:05.976864","REF_FRAME":"TEME","PERIOD":"95.596","PERIAPSIS":"546.387","INCLINATION":"53.0526","FILE":"3860643","MEAN_ANOMALY":"273.0359","CLASSIFICATION_TYPE":"U","TLE_LINE1":"1 47908U 21021BA  23073.89590251  .00036617  00000-0  24680-2 0  9993","DECAY_DATE":null,"NORAD_CAT_ID":"47908","ECCENTRICITY":"0.00014340","OBJECT_TYPE":"PAYLOAD","MEAN_MOTION_DDOT":"0.0000000000000"},{"OBJECT_NAME":"STARLINK-2369","GP_ID":"228106159","ELEMENT_SET_NO":"999","COUNTRY_CODE":"US","ARG_OF_PERICENTER":"105.3338","MEAN_ELEMENT_THEORY":"SGP4","RCS_SIZE":"LARGE","TLE_LINE2":"2 47909  53.0532 128.6108 0001485 105.3338 254.7815 15.06399903111938","SITE":"AFETR","RA_OF_ASC_NODE":"128.6108","MEAN_MOTION_DOT":"0.00012727","CENTER_NAME":"EARTH","SEMIMAJOR_AXIS":"6925.349","LAUNCH_DATE":"2021-03-14","REV_AT_EPOCH":"11193","EPHEMERIS_TYPE":"0","TIME_SYSTEM":"UTC","OBJECT_ID":"2021-021BB","BSTAR":"0.00087179000000","MEAN_MOTION":"15.06399903","FILE":"3860643","INCLINATION":"53.0532","MEAN_ANOMALY":"254.7815","PERIAPSIS":"546.185","PERIOD":"95.592","REF_FRAME":"TEME","EPOCH":"2023-03-14T20:17:09.110112","APOAPSIS":"548.242","MEAN_MOTION_DDOT":"0.0000000000000","OBJECT_TYPE":"PAYLOAD","ECCENTRICITY":"0.00014850","NORAD_CAT_ID":"47909","DECAY_DATE":null,"TLE_LINE1":"1 47909U 21021BB  23073.84524433  .00012727  00000-0  87179-3 0  9997","CLASSIFICATION_TYPE":"U"},{"BSTAR":"0.00082942000000","OBJECT_ID":"2021-021BC","TIME_SYSTEM":"UTC","MEAN_MOTION":"15.06432507","EPHEMERIS_TYPE":"0","REV_AT_EPOCH":"11179","LAUNCH_DATE":"2021-03-14","SEMIMAJOR_AXIS":"6925.249","RA_OF_ASC_NODE":"128.4470","MEAN_MOTION_DOT":"0.00012105","CENTER_NAME":"EARTH","SITE":"AFETR","COUNTRY_CODE":"US","GP_ID":"228106409","MEAN_ELEMENT_THEORY":"SGP4","ELEMENT_SET_NO":"999","ARG_OF_PERICENTER":"91.9501","OBJECT_NAME":"STARLINK-2370","RCS_SIZE":"LARGE","TLE_LINE2":"2 47910  53.0524 128.4470 0001069  91.9501 268.1610 15.06432507111795","DECAY_DATE":null,"CLASSIFICATION_TYPE":"U","TLE_LINE1":"1 47910U 21021BC  23073.88113695  .00012105  00000-0  82942-3 0  9990","MEAN_MOTION_DDOT":"0.0000000000000","NORAD_CAT_ID":"47910","ECCENTRICITY":"0.00010690","OBJECT_TYPE":"PAYLOAD","APOAPSIS":"547.854","EPOCH":"2023-03-14T21:08:50.232480","REF_FRAME":"TEME","PERIOD":"95.590","MEAN_ANOMALY":"268.1610","FILE":"3860643","INCLINATION":"53.0524","PERIAPSIS":"546.374"},{"EPHEMERIS_TYPE":"0","REV_AT_EPOCH":"11141","BSTAR":"0.00028690000000","OBJECT_ID":"2021-021BD","TIME_SYSTEM":"UTC","MEAN_MOTION":"15.06409289","GP_ID":"228107660","COUNTRY_CODE":"US","ELEMENT_SET_NO":"999","MEAN_ELEMENT_THEORY":"SGP4","ARG_OF_PERICENTER":"75.2896","OBJECT_NAME":"STARLINK-2371","RCS_SIZE":"LARGE","TLE_LINE2":"2 47911  53.0523 143.6149 0001604  75.2896 284.8271 15.06409289111412","SITE":"AFETR","RA_OF_ASC_NODE":"143.6149","MEAN_MOTION_DOT":"0.00003995","CENTER_NAME":"EARTH","SEMIMAJOR_AXIS":"6925.320","LAUNCH_DATE":"2021-03-14","MEAN_MOTION_DDOT":"0.0000000000000","NORAD_CAT_ID":"47911","ECCENTRICITY":"0.00016040","OBJECT_TYPE":"PAYLOAD","DECAY_DATE":null,"CLASSIFICATION_TYPE":"U","TLE_LINE1":"1 47911U 21021BD  23073.89733060  .00003995  00000-0  28690-3 0  9993","FILE":"3860643","MEAN_ANOMALY":"284.8271","INCLINATION":"53.0523","PERIAPSIS":"546.074","PERIOD":"95.592","EPOCH":"2023-03-14T21:32:09.363840","REF_FRAME":"TEME","APOAPSIS":"548.296"},{"REV_AT_EPOCH":"11162","EPHEMERIS_TYPE":"0","TIME_SYSTEM":"UTC","OBJECT_ID":"2021-021BE","BSTAR":"0.00117890000000","MEAN_MOTION":"15.06397093","OBJECT_NAME":"STARLINK-2372","COUNTRY_CODE":"US","GP_ID":"228107400","ELEMENT_SET_NO":"999","ARG_OF_PERICENTER":"94.7713","MEAN_ELEMENT_THEORY":"SGP4","RCS_SIZE":"LARGE","TLE_LINE2":"2 47912  53.0520 128.4703 0001691  94.7713 265.3469 15.06397093111622","SITE":"AFETR","RA_OF_ASC_NODE":"128.4703","MEAN_MOTION_DOT":"0.00017320","CENTER_NAME":"EARTH","LAUNCH_DATE":"2021-03-14","SEMIMAJOR_AXIS":"6925.357","MEAN_MOTION_DDOT":"0.0000000000000","ECCENTRICITY":"0.00016910","OBJECT_TYPE":"PAYLOAD","NORAD_CAT_ID":"47912","DECAY_DATE":null,"TLE_LINE1":"1 47912U 21021BE  23073.87378268  .00017320  00000-0  11789-2 0  9994","CLASSIFICATION_TYPE":"U","FILE":"3860643","INCLINATION":"53.0520","MEAN_ANOMALY":"265.3469","PERIAPSIS":"546.051","PERIOD":"95.592","EPOCH":"2023-03-14T20:58:14.823552","REF_FRAME":"TEME","APOAPSIS":"548.394"},{"PERIAPSIS":"546.300","MEAN_ANOMALY":"281.8487","FILE":"3860643","INCLINATION":"53.0515","PERIOD":"95.590","REF_FRAME":"TEME","EPOCH":"2023-03-14T21:09:00.397440","APOAPSIS":"547.930","NORAD_CAT_ID":"47913","ECCENTRICITY":"0.00011770","OBJECT_TYPE":"PAYLOAD","MEAN_MOTION_DDOT":"0.0000000000000","CLASSIFICATION_TYPE":"U","TLE_LINE1":"1 47913U 21021BF  23073.88125460  .00039371  00000-0  26450-2 0  9991","DECAY_DATE":null,"RCS_SIZE":"LARGE","TLE_LINE2":"2 47913  53.0515 138.9204 0001177  78.2634 281.8487 15.06432246111642","COUNTRY_CODE":"US","GP_ID":"228106659","ELEMENT_SET_NO":"999","ARG_OF_PERICENTER":"78.2634","MEAN_ELEMENT_THEORY":"SGP4","OBJECT_NAME":"STARLINK-2374","SITE":"AFETR","MEAN_MOTION_DOT":"0.00039371","CENTER_NAME":"EARTH","RA_OF_ASC_NODE":"138.9204","LAUNCH_DATE":"2021-03-14","SEMIMAJOR_AXIS":"6925.250","EPHEMERIS_TYPE":"0","REV_AT_EPOCH":"11164","MEAN_MOTION":"15.06432246","BSTAR":"0.00264500000000","OBJECT_ID":"2021-021BF","TIME_SYSTEM":"UTC"},{"EPOCH":"2023-03-14T21:35:27.532608","REF_FRAME":"TEME","APOAPSIS":"548.707","INCLINATION":"53.0522","FILE":"3860643","MEAN_ANOMALY":"296.6599","PERIAPSIS":"546.294","PERIOD":"95.598","DECAY_DATE":null,"CLASSIFICATION_TYPE":"U","TLE_LINE1":"1 47914U 21021BG  23073.89962422  .00044408  00000-0  29890-2 0  9998","MEAN_MOTION_DDOT":"0.0000000000000","NORAD_CAT_ID":"47914","OBJECT_TYPE":"PAYLOAD","ECCENTRICITY":"0.00017420","RA_OF_ASC_NODE":"138.3639","CENTER_NAME":"EARTH","MEAN_MOTION_DOT":"0.00044408","SEMIMAJOR_AXIS":"6925.636","LAUNCH_DATE":"2021-03-14","ELEMENT_SET_NO":"999","GP_ID":"228106909","COUNTRY_CODE":"US","MEAN_ELEMENT_THEORY":"SGP4","ARG_OF_PERICENTER":"63.4569","OBJECT_NAME":"STARLINK-2375","TLE_LINE2":"2 47914  53.0522 138.3639 0001742  63.4569 296.6599 15.06306356111648","RCS_SIZE":"LARGE","SITE":"AFETR","BSTAR":"0.00298900000000","OBJECT_ID":"2021-021BG","TIME_SYSTEM":"UTC","MEAN_MOTION":"15.06306356","EPHEMERIS_TYPE":"0","REV_AT_EPOCH":"11164"},{"FILE":"3860643","INCLINATION":"53.0543","MEAN_ANOMALY":"276.4530","PERIAPSIS":"546.099","PERIOD":"95.592","REF_FRAME":"TEME","EPOCH":"2023-03-14T21:33:26.131104","APOAPSIS":"548.279","MEAN_MOTION_DDOT":"0.0000000000000","ECCENTRICITY":"0.00015740","OBJECT_TYPE":"PAYLOAD","NORAD_CAT_ID":"47915","DECAY_DATE":null,"TLE_LINE1":"1 47915U 21021BH  23073.89821911  .00001775  00000-0  13802-3 0  9993","CLASSIFICATION_TYPE":"U","OBJECT_NAME":"STARLINK-2376","ELEMENT_SET_NO":"999","GP_ID":"228107161","COUNTRY_CODE":"US","ARG_OF_PERICENTER":"83.6638","MEAN_ELEMENT_THEORY":"SGP4","RCS_SIZE":"LARGE","TLE_LINE2":"2 47915  53.0543 133.3713 0001574  83.6638 276.4530 15.06408004111727","SITE":"AFETR","RA_OF_ASC_NODE":"133.3713","CENTER_NAME":"EARTH","MEAN_MOTION_DOT":"0.00001775","SEMIMAJOR_AXIS":"6925.324","LAUNCH_DATE":"2021-03-14","REV_AT_EPOCH":"11172","EPHEMERIS_TYPE":"0","TIME_SYSTEM":"UTC","OBJECT_ID":"2021-021BH","BSTAR":"0.00013802000000","MEAN_MOTION":"15.06408004"},{"REV_AT_EPOCH":"11138","EPHEMERIS_TYPE":"0","OBJECT_ID":"2021-021BJ","TIME_SYSTEM":"UTC","BSTAR":"0.00163790000000","MEAN_MOTION":"15.06388564","OBJECT_NAME":"STARLINK-2378","GP_ID":"228084929","ARG_OF_PERICENTER":"91.3434","COUNTRY_CODE":"US","ELEMENT_SET_NO":"999","MEAN_ELEMENT_THEORY":"SGP4","TLE_LINE2":"2 47916  53.0519 120.2745 0001387  91.3434 268.7714 15.06388564111381","RCS_SIZE":"LARGE","SITE":"AFETR","RA_OF_ASC_NODE":"120.2745","MEAN_MOTION_DOT":"0.00024192","CENTER_NAME":"EARTH","LAUNCH_DATE":"2021-03-14","SEMIMAJOR_AXIS":"6925.384","MEAN_MOTION_DDOT":"0.0000000000000","OBJECT_TYPE":"PAYLOAD","ECCENTRICITY":"0.00013870","NORAD_CAT_ID":"47916","DECAY_DATE":null,"TLE_LINE1":"1 47916U 21021BJ  23073.47386910  .00024192  00000-0  16379-2 0  9992","CLASSIFICATION_TYPE":"U","FILE":"3860595","MEAN_ANOMALY":"268.7714","INCLINATION":"53.0519","PERIAPSIS":"546.288","PERIOD":"95.593","REF_FRAME":"TEME","EPOCH":"2023-03-14T11:22:22.290240","APOAPSIS":"548.209"},{"MEAN_MOTION":"15.06362359","BSTAR":"0.00079768000000","TIME_SYSTEM":"UTC","OBJECT_ID":"2021-021BK","EPHEMERIS_TYPE":"0","REV_AT_EPOCH":"11175","MEAN_MOTION_DOT":"0.00011608","CENTER_NAME":"EARTH","RA_OF_ASC_NODE":"128.4571","LAUNCH_DATE":"2021-03-14","SEMIMAJOR_AXIS":"6925.464","RCS_SIZE":"LARGE","TLE_LINE2":"2 47917  53.0518 128.4571 0001260 103.1113 257.0017 15.06362359111756","COUNTRY_CODE":"US","GP_ID":"228106160","ELEMENT_SET_NO":"999","MEAN_ELEMENT_THEORY":"SGP4","ARG_OF_PERICENTER":"103.1113","OBJECT_NAME":"STARLINK-2397","SITE":"AFETR","CLASSIFICATION_TYPE":"U","TLE_LINE1":"1 47917U 21021BK  23073.87840694  .00011608  00000-0  79768-3 0  9991","DECAY_DATE":null,"NORAD_CAT_ID":"47917","ECCENTRICITY":"0.00012600","OBJECT_TYPE":"PAYLOAD","MEAN_MOTION_DDOT":"0.0000000000000","REF_FRAME":"TEME","EPOCH":"2023-03-14T21:04:54.359616","APOAPSIS":"548.202","PERIAPSIS":"546.456","FILE":"3860643","MEAN_ANOMALY":"257.0017","INCLINATION":"53.0518","PERIOD":"95.595"}];
